IRIDIUM 57 [-]          
1 25273U 98019B   23285.85097999  .00000970  00000+0  33451-3 0  9996
2 25273  86.3992  42.0779 0002105  91.9249 268.2188 14.34936829336803
IRIDIUM 63 [-]          
1 25286U 98021B   23285.68623571  .00000826  00000+0  28102-3 0  9992
2 25286  86.4013 339.1211 0002392  92.8691 267.2779 14.35443182335802
IRIDIUM 69 [-]          
1 25319U 98026A   23285.71385104  .00001068  00000+0  33572-3 0  9991
2 25319  86.4036 354.2059 0001061 171.3335 188.7883 14.39613747334769
IRIDIUM 71 [-]          
1 25320U 98026B   23285.70019664  .00001013  00000+0  31597-3 0  9992
2 25320  86.4023 349.0452 0001386  24.5346 335.5918 14.39948471335270
IRIDIUM 73 [-]          
1 25344U 98032C   23285.78058236  .00001106  00000+0  28025-3 0  9996
2 25344  86.4382 306.8472 0001636  95.1077 265.0314 14.50064866341623
IRIDIUM 82 [-]          
1 25467U 98051A   23285.84097582  .00015151  00000+0  88592-3 0  9997
2 25467  86.3967  42.5257 0147784  48.6136 312.7692 15.02888185331103
IRIDIUM 2 [-]           
1 25527U 98066A   23285.92183479  .00051478  00000+0  12101-2 0  9994
2 25527  85.5147  99.8571 0004395 188.6283 171.4896 15.41782328369262
